[
  {
    "name": "ONEWEB-0012",
    "noradId": "44057",
    "line1": "1 44057U 19010A   26179.65271333  .00000029  00000+0  41717-4 0  9990",
    "line2": "2 44057  87.9086 226.5083 0001758  85.9172 274.2160 13.16595229353072"
  },
  {
    "name": "ONEWEB-0010",
    "noradId": "44058",
    "line1": "1 44058U 19010B   26179.67804612 -.00000014  00000+0 -70824-4 0  9992",
    "line2": "2 44058  87.9090 226.4989 0002045 106.0415 254.0941 13.16595312353129"
  },
  {
    "name": "ONEWEB-0008",
    "noradId": "44059",
    "line1": "1 44059U 19010C   26179.55137519 -.00000308  00000+0 -83963-3 0  9998",
    "line2": "2 44059  87.9088 226.5197 0002301  92.8912 267.2482 13.16594131353223"
  },
  {
    "name": "ONEWEB-0007",
    "noradId": "44060",
    "line1": "1 44060U 19010D   26179.74764360  .00000088  00000+0  19874-3 0  9994",
    "line2": "2 44060  87.8998 256.9181 0001729 103.9822 256.1501 13.15548975352896"
  },
  {
    "name": "ONEWEB-0006",
    "noradId": "44061",
    "line1": "1 44061U 19010E   26179.67555639  .00001454  00000+0  38269-2 0  9990",
    "line2": "2 44061  87.9009 256.8980 0002006 103.4778 256.6576 13.15543968352930"
  },
  {
    "name": "ONEWEB-0011",
    "noradId": "44062",
    "line1": "1 44062U 19010F   26179.94808175 -.00000027  00000+0 -10509-3 0  9992",
    "line2": "2 44062  87.9009 256.8535 0002224 102.2374 257.9005 13.15548263352965"
  },
  {
    "name": "ONEWEB-0013",
    "noradId": "45131",
    "line1": "1 45131U 20008A   26179.63169200  .00000810  00000+0  23140-2 0  9996",
    "line2": "2 45131  87.8508  50.5156 0001750  49.4579 310.6700 13.09457912307564"
  },
  {
    "name": "ONEWEB-0017",
    "noradId": "45132",
    "line1": "1 45132U 20008B   26179.60612123  .00000535  00000+0  14977-2 0  9993",
    "line2": "2 45132  87.8816  33.9939 0001831  92.5894 267.5443 13.10366628309448"
  },
  {
    "name": "ONEWEB-0020",
    "noradId": "45133",
    "line1": "1 45133U 20008C   26179.65190485  .00000572  00000+0  16024-2 0  9997",
    "line2": "2 45133  87.8830  33.9834 0001810  83.7051 276.4282 13.10375808309847"
  },
  {
    "name": "ONEWEB-0021",
    "noradId": "45134",
    "line1": "1 45134U 20008D   26179.81989162  .00000606  00000+0  17011-2 0  9999",
    "line2": "2 45134  87.8819  33.9647 0001698  87.2765 272.8556 13.10372316310175"
  },
  {
    "name": "ONEWEB-0023",
    "noradId": "45136",
    "line1": "1 45136U 20008F   26179.83093645  .00000335  00000+0  92293-3 0  9990",
    "line2": "2 45136  87.8822  33.9458 0001932  80.4258 279.7087 13.10373759309607"
  },
  {
    "name": "ONEWEB-0024",
    "noradId": "45137",
    "line1": "1 45137U 20008G   26179.95576154  .00000195  00000+0  52368-3 0  9998",
    "line2": "2 45137  87.8835  33.9142 0001780  87.3872 272.7459 13.10373255309787"
  },
  {
    "name": "ONEWEB-0025",
    "noradId": "45138",
    "line1": "1 45138U 20008H   26179.95549080  .00000285  00000+0  77969-3 0  9991",
    "line2": "2 45138  87.8838  33.9040 0002283  86.1127 274.0261 13.10374458310118"
  },
  {
    "name": "ONEWEB-0026",
    "noradId": "45139",
    "line1": "1 45139U 20008J   26179.60307928  .00000225  00000+0  59964-3 0  9996",
    "line2": "2 45139  87.8879  18.7950 0001936  92.3551 267.7799 13.11418207312602"
  },
  {
    "name": "ONEWEB-0028",
    "noradId": "45140",
    "line1": "1 45140U 20008K   26179.80737557 -.00000456  00000+0 -13239-2 0  9997",
    "line2": "2 45140  87.8873  18.7623 0001663  68.9972 291.1333 13.11415246310140"
  },
  {
    "name": "ONEWEB-0032",
    "noradId": "45141",
    "line1": "1 45141U 20008L   26179.60793425 -.00000085  00000+0 -27881-3 0  9999",
    "line2": "2 45141  87.8820  33.9952 0001817  69.5385 290.5937 13.10368499309791"
  },
  {
    "name": "ONEWEB-0033",
    "noradId": "45142",
    "line1": "1 45142U 20008M   26179.65869206  .00000639  00000+0  17934-2 0  9996",
    "line2": "2 45142  87.8820  33.9915 0001947 101.4042 258.7304 13.10374402309718"
  },
  {
    "name": "ONEWEB-0035",
    "noradId": "45143",
    "line1": "1 45143U 20008N   26179.67918234  .00000188  00000+0  50199-3 0  9995",
    "line2": "2 45143  87.8816  33.9807 0001841  88.2096 271.9242 13.10373564309444"
  },
  {
    "name": "ONEWEB-0036",
    "noradId": "45144",
    "line1": "1 45144U 20008P   26179.65685535  .00000620  00000+0  17409-2 0  9996",
    "line2": "2 45144  87.8839  33.9998 0001855  78.3856 281.7479 13.10368568309865"
  },
  {
    "name": "ONEWEB-0038",
    "noradId": "45145",
    "line1": "1 45145U 20008Q   26179.91858437  .00000364  00000+0  99235-3 0  9992",
    "line2": "2 45145  87.8896  18.7427 0000688 156.5519 203.5641 13.11416620311865"
  },
  {
    "name": "ONEWEB-0039",
    "noradId": "45146",
    "line1": "1 45146U 20008R   26179.66209397  .00000704  00000+0  19808-2 0  9995",
    "line2": "2 45146  87.8821  33.9813 0001639  68.7527 291.3776 13.10372706309666"
  },
  {
    "name": "ONEWEB-0040",
    "noradId": "45147",
    "line1": "1 45147U 20008S   26179.65528573  .00000660  00000+0  18555-2 0  9994",
    "line2": "2 45147  87.8822  33.9934 0002074  79.4466 280.6895 13.10373005309360"
  },
  {
    "name": "ONEWEB-0043",
    "noradId": "45149",
    "line1": "1 45149U 20008U   26179.65710823  .00000607  00000+0  17029-2 0  9993",
    "line2": "2 45149  87.8830  33.9816 0001506  66.2572 293.8713 13.10336092309686"
  },
  {
    "name": "ONEWEB-0044",
    "noradId": "45150",
    "line1": "1 45150U 20008V   26179.60951624  .00000990  00000+0  28000-2 0  9992",
    "line2": "2 45150  87.8827  33.9927 0001921  81.3919 278.7427 13.10367566309977"
  },
  {
    "name": "ONEWEB-0045",
    "noradId": "45151",
    "line1": "1 45151U 20008W   26179.91335774  .00000164  00000+0  42706-3 0  9992",
    "line2": "2 45151  87.8891  18.7257 0001715  85.4997 274.6327 13.11417147311944"
  },
  {
    "name": "ONEWEB-0047",
    "noradId": "45152",
    "line1": "1 45152U 20008X   26179.67890795  .00000231  00000+0  62679-3 0  9991",
    "line2": "2 45152  87.8826  33.9777 0001695  91.9100 268.2222 13.10373874309705"
  },
  {
    "name": "ONEWEB-0048",
    "noradId": "45153",
    "line1": "1 45153U 20008Y   26179.82668520  .00000422  00000+0  11724-2 0  9994",
    "line2": "2 45153  87.8817  33.9683 0001762  87.2891 272.8438 13.10372510309337"
  },
  {
    "name": "ONEWEB-0049",
    "noradId": "45154",
    "line1": "1 45154U 20008Z   26179.82992963  .00000292  00000+0  80158-3 0  9999",
    "line2": "2 45154  87.8816  33.9570 0002139  78.2593 281.8775 13.10373115309550"
  },
  {
    "name": "ONEWEB-0051",
    "noradId": "45155",
    "line1": "1 45155U 20008AA  26179.60648527  .00000352  00000+0  95859-3 0  9991",
    "line2": "2 45155  87.8883  18.7935 0001835  87.5715 272.5624 13.11418929312583"
  },
  {
    "name": "ONEWEB-0052",
    "noradId": "45156",
    "line1": "1 45156U 20008AB  26179.62152119  .00000693  00000+0  19480-2 0  9994",
    "line2": "2 45156  87.8817  33.9861 0002206  77.2538 282.8836 13.10369619309439"
  }
]